55817,ONEWEB-0656,2023,109.03,148.0,+,87.93,Active,1,LEO,USA,UK,Commercial,Communications,Falcon,1 55817U 23029X   25063.36048091  .00000075  00000+0  15321-3 0  9995,2 55817  87.9324   7.9092 0001244  75.4183 284.7088 13.20771732 99139,13.20771732,0.0001244,LEO
55818,ONEWEB-0657,2023,109.11,148.0,+,87.92,Active,1,LEO,USA,UK,Commercial,Communications,Falcon,1 55818U 23029Y   25063.46376910  .00000072  00000+0  14629-3 0  9998,2 55818  87.9194  38.3462 0001519  59.3180 300.8102 13.19723912 96956,13.19723912,0.0001519,LEO
55819,ONEWEB-0658,2023,109.11,148.0,+,87.92,Active,1,LEO,USA,UK,Commercial,Communications,Falcon,1 55819U 23029Z   25063.83811748  .00000034  00000+0  51548-4 0  9993,2 55819  87.9194  38.2057 0002390  77.8075 282.3325 13.19724569 97694,13.19724569,0.000239,LEO
55820,ONEWEB-0660,2023,109.55,148.0,+,87.91,Active,1,LEO,USA,UK,Commercial,Communications,Falcon,1 55820U 23029AA  25063.40382418  .00000216  00000+0  54831-3 0  9994,2 55820  87.9053  23.0863 0002234  88.7836 271.3549 13.14503193 97688,13.14503193,0.0002234,LEO
55821,ONEWEB-0661,2023,109.55,148.0,+,87.91,Active,1,LEO,USA,UK,Commercial,Communications,Falcon,1 55821U 23029AB  25063.43869884 -.00000052  00000+0 -17593-3 0  9999,2 55821  87.9057  23.1488 0002148  90.9057 269.2319 13.14504695 97679,13.14504695,0.0002148,LEO
55822,ONEWEB-0662,2023,109.55,148.0,+,87.91,Active,1,LEO,USA,UK,Commercial,Communications,Falcon,1 55822U 23029AC  25063.39746909  .00000184  00000+0  46249-3 0  9991,2 55822  87.9053  23.1641 0002254  87.0658 273.0730 13.14505180 97714,13.1450518,0.0002254,LEO
55823,ONEWEB-0663,2023,109.02,148.0,+,87.93,Active,1,LEO,USA,UK,Commercial,Communications,Falcon,1 55823U 23029AD  25063.34647778  .00000183  00000+0  41780-3 0  9995,2 55823  87.9324   7.9693 0002305  84.7706 275.3691 13.20825537 99124,13.20825537,0.0002305,LEO
55824,ONEWEB-0664,2023,109.03,148.0,+,87.93,Active,1,LEO,USA,UK,Commercial,Communications,Falcon,1 55824U 23029AE  25063.34785249  .00000126  00000+0  27732-3 0  9990,2 55824  87.9324   7.9873 0001781  95.6091 264.5246 13.20770828 99128,13.20770828,0.0001781,LEO
